[{"OBJECT_NAME":"STARLINK-5506","OBJECT_ID":"2023-021Z","EPOCH":"2026-03-09T17:15:17.335296","MEAN_MOTION":14.98328506,"ECCENTRICITY":0.00031126,"INCLINATION":70.0012,"RA_OF_ASC_NODE":184.4684,"ARG_OF_PERICENTER":261.3518,"MEAN_ANOMALY":98.7288,"EPHEMERIS_TYPE":0,"CLASSIFICATION_TYPE":"U","NORAD_CAT_ID":55651,"ELEMENT_SET_NO":999,"REV_AT_EPOCH":16879,"BSTAR":-3.9269418e-5,"MEAN_MOTION_DOT":-5.62e-6,"MEAN_MOTION_DDOT":0},{"OBJECT_NAME":"GNOMES-4","OBJECT_ID":"2023-185A","EPOCH":"2026-03-09T23:48:26.932032","MEAN_MOTION":15.00198915,"ECCENTRICITY":0.000923,"INCLINATION":97.5118,"RA_OF_ASC_NODE":129.6992,"ARG_OF_PERICENTER":282.2655,"MEAN_ANOMALY":77.7535,"EPHEMERIS_TYPE":0,"CLASSIFICATION_TYPE":"U","NORAD_CAT_ID":58462,"ELEMENT_SET_NO":999,"REV_AT_EPOCH":12441,"BSTAR":0.00042532845,"MEAN_MOTION_DOT":5.265e-5,"MEAN_MOTION_DDOT":0}]
